{"type": "FeatureCollection", "features": [ {"type": "Feature", "properties": {"norad_id": 67020, "name": "STARLINK-36172", "group": "last-30-days", "lat": 33.18658953413192, "lon": -59.95570867548916, "alt_km": 341.2936552571791, "timestamp": "2025-12-25T16:53:13.375010+00:00", "meta": {"OBJECT_NAME": "STARLINK-36172", "OBJECT_ID": "2025-293T", "EPOCH": "2025-12-25T06:00:04.000320", "MEAN_MOTION": 15.77331074, "ECCENTRICITY": 0.00039165, "INCLINATION": 69.9921, "RA_OF_ASC_NODE": 287.5438, "ARG_OF_PERICENTER": 271.5884, "MEAN_ANOMALY": 70.5904, "EPHEMERIS_TYPE": 0, "CLASSIFICATION_TYPE": "U", "NORAD_CAT_ID": 67020, "ELEMENT_SET_NO": 999, "REV_AT_EPOCH": 223, "BSTAR": -0.0110064, "MEAN_MOTION_DOT": -0.01589832, "MEAN_MOTION_DDOT": 0}, "tle": {"line1": "1 67020U 25293T   25359.25004630 -.01589832  00000+0 -11006-1 0  9996", "line2": "2 67020  69.9921 287.5438 0003916 271.5884  70.5904 15.77331074  2234"}}, "geometry": {"type": "Point", "coordinates": [-59.95570867548916, 33.18658953413192]}}, {"type": "Feature", "properties": {"norad_id": 67021, "name": "STARLINK-36184", "group": "last-30-days", "lat": 35.4028241504808, "lon": -58.736951592485205, "alt_km": 341.0881159950932, "timestamp": "2025-12-25T16:53:13.375020+00:00", "meta": {"OBJECT_NAME": "STARLINK-36184", "OBJECT_ID": "2025-293U", "EPOCH": "2025-12-25T06:00:04.000320", "MEAN_MOTION": 15.77310759, "ECCENTRICITY": 0.00037762, "INCLINATION": 69.9922, "RA_OF_ASC_NODE": 287.5406, "ARG_OF_PERICENTER": 270.4137, "MEAN_ANOMALY": 74.2407, "EPHEMERIS_TYPE": 0, "CLASSIFICATION_TYPE": "U", "NORAD_CAT_ID": 67021, "ELEMENT_SET_NO": 999, "REV_AT_EPOCH": 223, "BSTAR": -0.011080021, "MEAN_MOTION_DOT": -0.01597687, "MEAN_MOTION_DDOT": 0}, "tle": {"line1": "1 67021U 25293U   25359.25004630 -.01597687  00000+0 -11080-1 0  9996", "line2": "2 67021  69.9922 287.5406 0003776 270.4137  74.2407 15.77310759  2230"}}, "geometry": {"type": "Point", "coordinates": [-58.736951592485205, 35.4028241504808]}}, {"type": "Feature", "properties": {"norad_id": 67022, "name": "STARLINK-36209", "group": "last-30-days", "lat": 37.859963716906385, "lon": -57.294765663674916, "alt_km": 340.7688348650663, "timestamp": "2025-12-25T16:53:13.375030+00:00", "meta": {"OBJECT_NAME": "STARLINK-36209", "OBJECT_ID": "2025-293V", "EPOCH": "2025-12-25T06:00:04.000320", "MEAN_MOTION": 15.77274245, "ECCENTRICITY": 0.00037576, "INCLINATION": 69.9919, "RA_OF_ASC_NODE": 287.5374, "ARG_OF_PERICENTER": 273.029, "MEAN_ANOMALY": 74.3929, "EPHEMERIS_TYPE": 0, "CLASSIFICATION_TYPE": "U", "NORAD_CAT_ID": 67022, "ELEMENT_SET_NO": 999, "REV_AT_EPOCH": 223, "BSTAR": -0.011050901, "MEAN_MOTION_DOT": -0.01591734, "MEAN_MOTION_DDOT": 0}, "tle": {"line1": "1 67022U 25293V   25359.25004630 -.01591734  00000+0 -11051-1 0  9992", "line2": "2 67022  69.9919 287.5374 0003757 273.0290  74.3929 15.77274245  2238"}}, "geometry": {"type": "Point", "coordinates": [-57.294765663674916, 37.859963716906385]}}, {"type": "Feature", "properties": {"norad_id": 67023, "name": "STARLINK-36191", "group": "last-30-days", "lat": 39.982691005686185, "lon": -55.960466801909824, "alt_km": 340.68205870862676, "timestamp": "2025-12-25T16:53:13.375041+00:00", "meta": {"OBJECT_NAME": "STARLINK-36191", "OBJECT_ID": "2025-293W", "EPOCH": "2025-12-25T06:00:04.000320", "MEAN_MOTION": 15.77254127, "ECCENTRICITY": 0.00037749, "INCLINATION": 69.9918, "RA_OF_ASC_NODE": 287.5339, "ARG_OF_PERICENTER": 269.8313, "MEAN_ANOMALY": 79.9863, "EPHEMERIS_TYPE": 0, "CLASSIFICATION_TYPE": "U", "NORAD_CAT_ID": 67023, "ELEMENT_SET_NO": 999, "REV_AT_EPOCH": 212, "BSTAR": -0.011056506, "MEAN_MOTION_DOT": -0.01591203, "MEAN_MOTION_DDOT": 0}, "tle": {"line1": "1 67023U 25293W   25359.25004630 -.01591203  00000+0 -11057-1 0  9990", "line2": "2 67023  69.9918 287.5339 0003774 269.8313  79.9863 15.77254127  2120"}}, "geometry": {"type": "Point", "coordinates": [-55.960466801909824, 39.982691005686185]}}, {"type": "Feature", "properties": {"norad_id": 67024, "name": "STARLINK-36192", "group": "last-30-days", "lat": 42.27723725016308, "lon": -54.40796495962532, "alt_km": 340.4641707272367, "timestamp": "2025-12-25T16:53:13.375054+00:00", "meta": {"OBJECT_NAME": "STARLINK-36192", "OBJECT_ID": "2025-293X", "EPOCH": "2025-12-25T06:00:04.000320", "MEAN_MOTION": 15.77225941, "ECCENTRICITY": 0.00037868, "INCLINATION": 69.9921, "RA_OF_ASC_NODE": 287.5312, "ARG_OF_PERICENTER": 270.6231, "MEAN_ANOMALY": 81.814, "EPHEMERIS_TYPE": 0, "CLASSIFICATION_TYPE": "U", "NORAD_CAT_ID": 67024, "ELEMENT_SET_NO": 999, "REV_AT_EPOCH": 223, "BSTAR": -0.011074368, "MEAN_MOTION_DOT": -0.01591701, "MEAN_MOTION_DDOT": 0}, "tle": {"line1": "1 67024U 25293X   25359.25004630 -.01591701  00000+0 -11074-1 0  9993", "line2": "2 67024  69.9921 287.5312 0003786 270.6231  81.8140 15.77225941  2232"}}, "geometry": {"type": "Point", "coordinates": [-54.40796495962532, 42.27723725016308]}}, {"type": "Feature", "properties": {"norad_id": 67025, "name": "STARLINK-36178", "group": "last-30-days", "lat": 44.25007267743857, "lon": -52.9668610607101, "alt_km": 340.24791134659245, "timestamp": "2025-12-25T16:53:13.375064+00:00", "meta": {"OBJECT_NAME": "STARLINK-36178", "OBJECT_ID": "2025-293Y", "EPOCH": "2025-12-25T06:00:04.000320", "MEAN_MOTION": 15.77210168, "ECCENTRICITY": 0.0003722, "INCLINATION": 69.992, "RA_OF_ASC_NODE": 287.5283, "ARG_OF_PERICENTER": 270.0897, "MEAN_ANOMALY": 84.6049, "EPHEMERIS_TYPE": 0, "CLASSIFICATION_TYPE": "U", "NORAD_CAT_ID": 67025, "ELEMENT_SET_NO": 999, "REV_AT_EPOCH": 223, "BSTAR": -0.011061947, "MEAN_MOTION_DOT": -0.015891, "MEAN_MOTION_DDOT": 0}, "tle": {"line1": "1 67025U 25293Y   25359.25004630 -.01589100  00000+0 -11062-1 0  9991", "line2": "2 67025  69.9920 287.5283 0003722 270.0897  84.6049 15.77210168  2235"}}, "geometry": {"type": "Point", "coordinates": [-52.9668610607101, 44.25007267743857]}}, {"type": "Feature", "properties": {"norad_id": 67026, "name": "STARLINK-36176", "group": "last-30-days", "lat": 48.39623454826656, "lon": -49.53611947435504, "alt_km": 339.6457140247012, "timestamp": "2025-12-25T16:53:13.375074+00:00", "meta": {"OBJECT_NAME": "STARLINK-36176", "OBJECT_ID": "2025-293Z", "EPOCH": "2025-12-25T06:00:04.000320", "MEAN_MOTION": 15.77170004, "ECCENTRICITY": 0.00036056, "INCLINATION": 69.9917, "RA_OF_ASC_NODE": 287.5224, "ARG_OF_PERICENTER": 276.1854, "MEAN_ANOMALY": 83.3454, "EPHEMERIS_TYPE": 0, "CLASSIFICATION_TYPE": "U", "NORAD_CAT_ID": 67026, "ELEMENT_SET_NO": 999, "REV_AT_EPOCH": 223, "BSTAR": -0.011100433, "MEAN_MOTION_DOT": -0.01591307, "MEAN_MOTION_DDOT": 0}, "tle": {"line1": "1 67026U 25293Z   25359.25004630 -.01591307  00000+0 -11100-1 0  9997", "line2": "2 67026  69.9917 287.5224 0003605 276.1854  83.3454 15.77170004  2237"}}, "geometry": {"type": "Point", "coordinates": [-49.53611947435504, 48.39623454826656]}}, {"type": "Feature", "properties": {"norad_id": 67027, "name": "STARLINK-36171", "group": "last-30-days", "lat": 46.54535055181917, "lon": -51.14233456424516, "alt_km": 339.93172721568317, "timestamp": "2025-12-25T16:53:13.375084+00:00", "meta": {"OBJECT_NAME": "STARLINK-36171", "OBJECT_ID": "2025-293AA", "EPOCH": "2025-12-25T06:00:04.000320", "MEAN_MOTION": 15.77181951, "ECCENTRICITY": 0.0003561, "INCLINATION": 69.9915, "RA_OF_ASC_NODE": 287.5253, "ARG_OF_PERICENTER": 271.7664, "MEAN_ANOMALY": 85.6041, "EPHEMERIS_TYPE": 0, "CLASSIFICATION_TYPE": "U", "NORAD_CAT_ID": 67027, "ELEMENT_SET_NO": 999, "REV_AT_EPOCH": 223, "BSTAR": -0.011100817, "MEAN_MOTION_DOT": -0.01592054, "MEAN_MOTION_DDOT": 0}, "tle": {"line1": "1 67027U 25293AA  25359.25004630 -.01592054  00000+0 -11101-1 0  9999", "line2": "2 67027  69.9915 287.5253 0003561 271.7664  85.6041 15.77181951  2239"}}, "geometry": {"type": "Point", "coordinates": [-51.14233456424516, 46.54535055181917]}}, {"type": "Feature", "properties": {"norad_id": 67028, "name": "STARLINK-36132", "group": "last-30-days", "lat": 52.446201229433235, "lon": -45.47816206518144, "alt_km": 339.3901104695151, "timestamp": "2025-12-25T16:53:13.375094+00:00", "meta": {"OBJECT_NAME": "STARLINK-36132", "OBJECT_ID": "2025-293AB", "EPOCH": "2025-12-25T06:00:04.000320", "MEAN_MOTION": 15.77127877, "ECCENTRICITY": 0.00037186, "INCLINATION": 69.992, "RA_OF_ASC_NODE": 287.5169, "ARG_OF_PERICENTER": 276.0373, "MEAN_ANOMALY": 88.3605, "EPHEMERIS_TYPE": 0, "CLASSIFICATION_TYPE": "U", "NORAD_CAT_ID": 67028, "ELEMENT_SET_NO": 999, "REV_AT_EPOCH": 223, "BSTAR": -0.011114849, "MEAN_MOTION_DOT": -0.01590599, "MEAN_MOTION_DDOT": 0}, "tle": {"line1": "1 67028U 25293AB  25359.25004630 -.01590599  00000+0 -11115-1 0  9997", "line2": "2 67028  69.9920 287.5169 0003718 276.0373  88.3605 15.77127877  2234"}}, "geometry": {"type": "Point", "coordinates": [-45.47816206518144, 52.446201229433235]}}, {"type": "Feature", "properties": {"norad_id": 67029, "name": "STARLINK-36190", "group": "last-30-days", "lat": 50.2886373400003, "lon": -47.74360888065225, "alt_km": 339.53424765623276, "timestamp": "2025-12-25T16:53:13.375104+00:00", "meta": {"OBJECT_NAME": "STARLINK-36190", "OBJECT_ID": "2025-293AC", "EPOCH": "2025-12-25T06:00:04.000320", "MEAN_MOTION": 15.77157725, "ECCENTRICITY": 0.00035972, "INCLINATION": 69.9921, "RA_OF_ASC_NODE": 287.5203, "ARG_OF_PERICENTER": 274.0786, "MEAN_ANOMALY": 87.6978, "EPHEMERIS_TYPE": 0, "CLASSIFICATION_TYPE": "U", "NORAD_CAT_ID": 67029, "ELEMENT_SET_NO": 999, "REV_AT_EPOCH": 223, "BSTAR": -0.011127186, "MEAN_MOTION_DOT": -0.01593876, "MEAN_MOTION_DDOT": 0}, "tle": {"line1": "1 67029U 25293AC  25359.25004630 -.01593876  00000+0 -11127-1 0  9992", "line2": "2 67029  69.9921 287.5203 0003597 274.0786  87.6978 15.77157725  2236"}}, "geometry": {"type": "Point", "coordinates": [-47.74360888065225, 50.2886373400003]}}]}